[{"OBJECT_NAME":"RESOURCESAT-2A","OBJECT_ID":"2016-074A","EPOCH":"2026-03-09T23:20:04.284384","MEAN_MOTION":14.21600566,"ECCENTRICITY":0.00024894,"INCLINATION":98.7596,"RA_OF_ASC_NODE":143.2604,"ARG_OF_PERICENTER":35.4222,"MEAN_ANOMALY":324.712,"EPHEMERIS_TYPE":0,"CLASSIFICATION_TYPE":"U","NORAD_CAT_ID":41877,"ELEMENT_SET_NO":999,"REV_AT_EPOCH":48020,"BSTAR":7.9593145e-5,"MEAN_MOTION_DOT":1.3e-6,"MEAN_MOTION_DDOT":0},{"OBJECT_NAME":"CZ-6A DEB","OBJECT_ID":"2022-151ABU","EPOCH":"2026-03-08T09:37:57.807264","MEAN_MOTION":14.04527963,"ECCENTRICITY":0.00840915,"INCLINATION":98.8702,"RA_OF_ASC_NODE":56.8007,"ARG_OF_PERICENTER":274.98,"MEAN_ANOMALY":84.1772,"EPHEMERIS_TYPE":0,"CLASSIFICATION_TYPE":"U","NORAD_CAT_ID":56252,"ELEMENT_SET_NO":999,"REV_AT_EPOCH":15212,"BSTAR":0.00079821103,"MEAN_MOTION_DOT":1.271e-5,"MEAN_MOTION_DDOT":0}]
